QIANFAN-49              
1 62250U 24232P   25269.96131442  .00000108  00000+0  14775-3 0  9997
2 62250  88.9992  48.9702 0015612  61.6181 298.6542 13.50973472 57470
QIANFAN-50              
1 62251U 24232Q   25269.91195480  .00000122  00000+0  16960-3 0  9999
2 62251  88.9997  48.9791 0017288  62.5191 297.7716 13.50968581 57496
QIANFAN-51              
1 62252U 24232R   25269.96952008  .00000136  00000+0  19248-3 0  9999
2 62252  88.9991  48.9719 0014859  66.3923 293.8786 13.50971074 57492
QIANFAN-52              
1 62253U 24232S   25269.92425269  .00000115  00000+0  15872-3 0  9996
2 62253  88.9987  48.8531 0016718  58.9035 301.3754 13.50973493 57572
QIANFAN-53              
1 62254U 24232T   25269.90370679  .00000126  00000+0  17600-3 0  9992
2 62254  88.9995  48.9539 0015622  60.2895 299.9808 13.50969376 57537
QIANFAN-54              
1 62255U 24232U   25269.94480778  .00000142  00000+0  20118-3 0  9995
2 62255  88.9987  48.6349 0003932  98.1498 262.0099 13.50971513 89045
QIANFAN-55              
1 62785U 25016A   25269.97073975  .00000038  00000+0  40666-4 0  9999
2 62785  88.9758 111.1421 0016310 205.5016 154.5332 13.50965389 36827
QIANFAN-56              
1 62786U 25016B   25269.98732042  .00000050  00000+0  58902-4 0  9994
2 62786  88.9729 110.9976 0014907 207.5871 152.4491 13.50973487 36875
